NORAD_CAT_ID,OBJECT_NAME,OBJECT_TYPE,EPOCH,MEAN_MOTION,ECCENTRICITY,INCLINATION,RA_OF_ASC_NODE,ARG_OF_PERICENTER,MEAN_ANOMALY,BSTAR,MEAN_MOTION_DOT,MEAN_MOTION_DDOT,TLE_LINE0,TLE_LINE1,TLE_LINE2,SEMIMAJOR_AXIS,PERIOD,APOGEE,PERIGEE,DECAYED
56451.0,STARLINK-5985,PAYLOAD,2023-11-20 20:40:22,14.98335365,0.0003182,69.9992,102.1365,270.8832,89.1963,6.2007e-05,6.47e-06,0.0,0 STARLINK-5985,1 56451U 23064D   23324.86137010  .00000647  00000-0  62007-4 0  9992,2 56451  69.9992 102.1365 0003182 270.8832  89.1963 14.98335365 29441,6950.176,96.107,574.253,569.83,0.0
56451.0,STARLINK-5985,PAYLOAD,2023-11-21 12:41:43,14.98330234,0.0003111,69.9997,100.453,270.8279,89.2524,-1.1381e-05,-2.29e-06,0.0,0 STARLINK-5985,1 56451U 23064D   23325.52897464 -.00000229  00000-0 -11381-4 0  9999,2 56451  69.9997 100.4530 0003111 270.8279  89.2524 14.98330234 29543,6950.192,96.107,574.219,569.895,0.0
56451.0,STARLINK-5985,PAYLOAD,2023-11-21 19:06:15,14.98335678,0.0003171,69.9995,99.7798,270.2526,89.8269,2.3306e-05,1.85e-06,0.0,0 STARLINK-5985,1 56451U 23064D   23325.79600946  .00000185  00000-0  23306-4 0  9994,2 56451  69.9995  99.7798 0003171 270.2526  89.8269 14.98335678 29585,6950.175,96.107,574.244,569.836,0.0
56451.0,STARLINK-5985,PAYLOAD,2023-11-22 12:43:43,14.98334032,0.0003093,70.0003,97.929,268.295,91.7855,5.0584e-05,5.11e-06,0.0,0 STARLINK-5985,1 56451U 23064D   23326.53036716  .00000511  00000-0  50584-4 0  9996,2 56451  70.0003  97.9290 0003093 268.2950  91.7855 14.98334032 29694,6950.18,96.107,574.195,569.896,0.0
56451.0,STARLINK-5985,PAYLOAD,2023-11-22 19:08:15,14.98342087,0.0002872,70.0005,97.2561,261.7695,98.3138,0.00010201,1.125e-05,0.0,0 STARLINK-5985,1 56451U 23064D   23326.79739925  .00001125  00000-0  10201-3 0  9999,2 56451  70.0005  97.2561 0002872 261.7695  98.3138 14.98342087 30090,6950.156,96.106,574.017,570.024,0.0
56451.0,STARLINK-5985,PAYLOAD,2023-11-23 11:09:37,14.98321972,0.0003333,70.0003,95.5728,270.6408,89.4369,-8.7066e-05,-1.132e-05,0.0,0 STARLINK-5985,1 56451U 23064D   23327.46501684 -.00001132  00000-0 -87066-4 0  9997,2 56451  70.0003  95.5728 0003333 270.6408  89.4369 14.98321972 30196,6950.218,96.108,574.399,569.766,0.0
56451.0,STARLINK-5985,PAYLOAD,2023-11-23 14:21:53,14.98320492,0.0002984,70.0005,95.2366,265.5832,94.4986,-0.00010075,-1.295e-05,0.0,0 STARLINK-5985,1 56451U 23064D   23327.59853841 -.00001295  00000-0 -10075-3 0  9991,2 56451  70.0005  95.2366 0002984 265.5832  94.4986 14.98320492 29856,6950.222,96.108,574.161,570.013,0.0
56451.0,STARLINK-5985,PAYLOAD,2023-11-23 19:10:16,14.98391551,0.0002463,70.0005,94.731,240.1194,119.972,-0.0012517,-0.00015019,0.0,0 STARLINK-5985,1 56451U 23064D   23327.79879983 -.00015019  00000-0 -12517-2 0  9999,2 56451  70.0005  94.7310 0002463 240.1194 119.9720 14.98391551 30249,6950.003,96.103,573.579,570.156,0.0
56451.0,STARLINK-5985,PAYLOAD,2023-11-24 11:11:38,14.98327408,0.0003088,70.0001,93.0476,266.8607,93.2199,-7.6995e-05,-1.012e-05,0.0,0 STARLINK-5985,1 56451U 23064D   23328.46641532 -.00001012  00000-0 -76995-4 0  9991,2 56451  70.0001  93.0476 0003088 266.8607  93.2199 14.98327408 30343,6950.201,96.107,574.212,569.92,0.0
56451.0,STARLINK-5985,PAYLOAD,2023-11-24 14:23:54,14.98328403,0.0002709,70.0005,92.7111,259.8146,100.2707,-7.0985e-05,-9.4e-06,0.0,0 STARLINK-5985,1 56451U 23064D   23328.59993507 -.00000940  00000-0 -70985-4 0  9999,2 56451  70.0005  92.7111 0002709 259.8146 100.2707 14.98328403 30001,6950.198,96.107,573.946,570.18,0.0
56451.0,STARLINK-5985,PAYLOAD,2023-11-24 17:36:10,14.98329086,0.0002869,70.0007,92.3743,271.9965,88.0865,-3.493e-05,-5.1e-06,0.0,0 STARLINK-5985,1 56451U 23064D   23328.73345431 -.00000510  00000-0 -34930-4 0  9995,2 56451  70.0007  92.3743 0002869 271.9965  88.0865 14.98329086 30029,6950.196,96.107,574.055,570.067,0.0
56451.0,STARLINK-5985,PAYLOAD,2023-11-25 14:25:55,14.98330732,0.0002818,70.0005,90.1864,263.6458,96.438,3.8942e-05,3.72e-06,0.0,0 STARLINK-5985,1 56451U 23064D   23329.60133120  .00000372  00000-0  38942-4 0  9993,2 56451  70.0005  90.1864 0002818 263.6458  96.4380 14.98330732 30155,6950.191,96.107,574.014,570.097,0.0
56451.0,STARLINK-5985,PAYLOAD,2023-11-25 17:38:10,14.98335502,0.000313,69.9995,89.8492,266.0418,94.0384,0.00021837,2.514e-05,0.0,0 STARLINK-5985,1 56451U 23064D   23329.73484253  .00002514  00000-0  21837-3 0  9997,2 56451  69.9995  89.8492 0003130 266.0418  94.0384 14.98335502 30173,6950.176,96.107,574.216,569.865,0.0
56451.0,STARLINK-5985,PAYLOAD,2023-11-26 14:27:54,14.98338909,0.0002925,70.0004,87.661,269.0125,91.0699,0.00012051,1.346e-05,0.0,0 STARLINK-5985,1 56451U 23064D   23330.60271949  .00001346  00000-0  12051-3 0  9991,2 56451  70.0004  87.6610 0002925 269.0125  91.0699 14.98338909 30309,6950.165,96.106,574.063,569.997,0.0
56451.0,STARLINK-5985,PAYLOAD,2023-11-26 17:40:10,14.98342162,0.0002901,70.0008,87.3248,271.8307,88.252,0.00014193,1.601e-05,0.0,0 STARLINK-5985,1 56451U 23064D   23330.73623613  .00001601  00000-0  14193-3 0  9997,2 56451  70.0008  87.3248 0002901 271.8307  88.2520 14.98342162 30682,6950.155,96.106,574.037,570.004,0.0
56451.0,STARLINK-5985,PAYLOAD,2023-11-27 11:17:41,14.98318794,0.0003281,69.9997,85.4739,265.6374,94.4411,-0.00026568,-3.261e-05,0.0,0 STARLINK-5985,1 56451U 23064D   23331.47062287 -.00003261  00000-0 -26568-3 0  9998,2 56451  69.9997  85.4739 0003281 265.6374  94.4411 14.98318794 30791,6950.228,96.108,574.373,569.812,0.0
56451.0,STARLINK-5985,PAYLOAD,2023-11-27 14:29:58,14.98312664,0.0002613,70.0015,85.1378,250.7457,109.3419,-0.00025649,-3.15e-05,0.0,0 STARLINK-5985,1 56451U 23064D   23331.60414748 -.00003150  00000-0 -25649-3 0  9992,2 56451  70.0015  85.1378 0002613 250.7457 109.3419 14.98312664 30453,6950.247,96.108,573.928,570.295,0.0
56451.0,STARLINK-5985,PAYLOAD,2023-11-27 17:42:14,14.98314637,0.0002706,70.0013,84.8016,251.6317,108.4548,-0.00023422,-2.885e-05,0.0,0 STARLINK-5985,1 56451U 23064D   23331.73766665 -.00002885  00000-0 -23422-3 0  9995,2 56451  70.0013  84.8016 0002706 251.6317 108.4548 14.98314637 30471,6950.24,96.108,573.986,570.225,0.0
56451.0,STARLINK-5985,PAYLOAD,2023-11-28 11:19:41,14.98333128,0.0002674,70.0017,82.9489,267.4529,92.6324,-2.4854e-05,-3.89e-06,0.0,0 STARLINK-5985,1 56451U 23064D   23332.47201062 -.00000389  00000-0 -24854-4 0  9990,2 56451  70.0017  82.9489 0002674 267.4529  92.6324 14.98333128 30946,6950.183,96.107,573.907,570.19,0.0
56451.0,STARLINK-5985,PAYLOAD,2023-11-28 14:31:57,14.98334448,0.0002388,70.0024,82.6134,250.5702,109.5199,1.8119e-05,1.23e-06,0.0,0 STARLINK-5985,1 56451U 23064D   23332.60552791  .00000123  00000-0  18119-4 0  9994,2 56451  70.0024  82.6134 0002388 250.5702 109.5199 14.98334448 30603,6950.179,96.107,573.704,570.384,0.0
56451.0,STARLINK-5985,PAYLOAD,2023-11-28 17:44:13,14.98344056,0.0002678,70.0015,82.2743,273.497,86.5882,0.00011434,1.272e-05,0.0,0 STARLINK-5985,1 56451U 23064D   23332.73903998  .00001272  00000-0  11434-3 0  9995,2 56451  70.0015  82.2743 0002678 273.4970  86.5882 14.98344056 30988,6950.149,96.106,573.876,570.153,0.0
56451.0,STARLINK-5985,PAYLOAD,2023-11-29 11:21:42,14.98320519,0.0002757,70.0011,80.4245,254.6824,105.4031,0.00019467,2.23e-05,0.0,0 STARLINK-5985,1 56451U 23064D   23333.47341145  .00002230  00000-0  19467-3 0  9996,2 56451  70.0011  80.4245 0002757 254.6824 105.4031 14.98320519 31096,6950.222,96.108,574.003,570.171,0.0
56451.0,STARLINK-5985,PAYLOAD,2023-11-29 14:33:58,14.98321566,0.000278,70.0016,80.0888,256.2411,103.8439,0.00021229,2.44e-05,0.0,0 STARLINK-5985,1 56451U 23064D   23333.60693106  .00002440  00000-0  21229-3 0  9990,2 56451  70.0016  80.0888 0002780 256.2411 103.8439 14.98321566 30755,6950.219,96.108,574.016,570.152,0.0
56451.0,STARLINK-5985,PAYLOAD,2023-11-30 11:23:43,14.98333735,0.0002586,70.002,77.9024,258.1991,101.8878,-6.4482e-05,-8.62e-06,0.0,0 STARLINK-5985,1 56451U 23064D   23334.47481353 -.00000862  00000-0 -64482-4 0  9992,2 56451  70.0020  77.9024 0002586 258.1991 101.8878 14.98333735 31246,6950.181,96.107,573.844,570.249,0.0
56451.0,STARLINK-5985,PAYLOAD,2023-12-01 11:25:44,14.98329718,0.0002956,70.0011,75.3761,270.9157,89.1663,-3.035e-06,-1.29e-06,0.0,0 STARLINK-5985,1 56451U 23064D   23335.47621128 -.00000129  00000-0 -30350-5 0  9993,2 56451  70.0011  75.3761 0002956 270.9157  89.1663 14.98329718 31395,6950.194,96.107,574.113,570.004,0.0
56451.0,STARLINK-5985,PAYLOAD,2023-12-01 16:14:08,14.98335579,0.0002756,70.0019,74.8728,253.8942,106.1913,4.1334e-05,4e-06,0.0,0 STARLINK-5985,1 56451U 23064D   23335.67648583  .00000400  00000-0  41334-4 0  9992,2 56451  70.0019  74.8728 0002756 253.8942 106.1913 14.98335579 31424,6950.176,96.107,573.956,570.125,0.0
56451.0,STARLINK-5985,PAYLOAD,2023-12-02 11:27:43,14.98343861,0.0002909,70.0012,72.8511,271.7795,88.3031,0.00016229,1.845e-05,0.0,0 STARLINK-5985,1 56451U 23064D   23336.47759179  .00001845  00000-0  16229-3 0  9993,2 56451  70.0012  72.8511 0002909 271.7795  88.3031 14.98343861 31548,6950.15,96.106,574.037,569.993,0.0
56451.0,STARLINK-5985,PAYLOAD,2023-12-02 14:39:59,14.98345094,0.0002314,70.0034,72.5174,237.5105,122.5831,0.00022213,2.559e-05,0.0,0 STARLINK-5985,1 56451U 23064D   23336.61110765  .00002559  00000-0  22213-3 0  9994,2 56451  70.0034  72.5174 0002314 237.5105 122.5831 14.98345094 31201,6950.146,96.106,573.619,570.403,0.0
56451.0,STARLINK-5985,PAYLOAD,2023-12-02 16:16:07,14.98349523,0.0002295,70.0026,72.3479,306.9283,53.1666,0.00026721,3.098e-05,0.0,0 STARLINK-5985,1 56451U 23064D   23336.67786781  .00003098  00000-0  26721-3 0  9994,2 56451  70.0026  72.3479 0002295 306.9283  53.1666 14.98349523 31211,6950.133,96.106,573.593,570.402,0.0
56451.0,STARLINK-5985,PAYLOAD,2023-12-03 11:29:49,14.98291117,0.000266,70.0031,70.3292,259.9917,100.0942,-0.00037247,-4.53e-05,0.0,0 STARLINK-5985,1 56451U 23064D   23337.47904144 -.00004530  00000-0 -37247-3 0  9997,2 56451  70.0031  70.3292 0002660 259.9917 100.0942 14.98291117 31691,6950.313,96.109,574.027,570.329,0.0
